OPTICUBE 04             
1 41851U 16067D   26068.51005515  .00003771  00000+0  24102-3 0  9992
2 41851  98.0811 275.5525 0017089  94.6311 265.6869 15.09188144510131
STARLINK-34654          
1 64858U 25152S   26068.83382394  .00002859  00000+0  20227-3 0  9997
2 64858  97.6015 285.7132 0001812  90.5043 269.6392 15.05650765 35445
